OBJECT_NAME,OBJECT_ID,EPOCH,MEAN_MOTION,ECCENTRICITY,INCLINATION,RA_OF_ASC_NODE,ARG_OF_PERICENTER,MEAN_ANOMALY,EPHEMERIS_TYPE,CLASSIFICATION_TYPE,NORAD_CAT_ID,ELEMENT_SET_NO,REV_AT_EPOCH,BSTAR,MEAN_MOTION_DOT,MEAN_MOTION_DDOT
STARLINK-33784,2025-069W,2026-07-13T12:04:25.546080,15.30215949,.0001356,53.1592,278.3450,125.6430,234.4697,0,U,63453,999,7266,.22357E-3,.6271E-4,0
STARLINK-33768,2025-069X,2026-07-13T11:32:43.429344,15.34406152,.0001095,53.1591,272.5070,62.2730,297.8384,0,U,63454,999,7273,.4572E-3,.15105E-3,0
STARLINK-33761,2025-069Y,2026-07-13T11:05:27.408192,15.34403128,.0001364,53.1584,272.3909,46.9001,313.2115,0,U,63455,999,7274,.20175E-3,.6447E-4,0
STARLINK-33737,2025-069Z,2026-07-13T11:11:30.083424,15.34402022,.0001042,53.1589,272.4088,169.8631,190.2393,0,U,63456,999,7263,.50043E-3,.1657E-3,0
STARLINK-33795,2025-069AA,2026-07-13T11:38:47.365152,15.34403831,.000124,53.1590,272.5393,75.9200,284.1940,0,U,63457,999,7263,.42112E-3,.1388E-3,0
STARLINK-33756,2025-069AB,2026-07-13T11:23:38.133024,15.34391034,.0001313,53.1593,272.4596,72.0157,288.0989,0,U,63458,999,7274,.41693E-3,.13732E-3,0
STARLINK-33780,2025-069AC,2026-07-13T11:35:45.189024,15.34406805,.0000471,53.1587,272.5165,59.2636,300.8413,0,U,63459,999,7263,.47565E-3,.15732E-3,0
STARLINK-33679,2025-070A,2026-07-13T07:12:00.063936,15.27587317,.0003696,43.0086,270.7484,301.7002,58.3489,0,U,63460,999,7218,.28289E-3,.7532E-4,0
STARLINK-33706,2025-070B,2026-07-13T05:43:23.395008,15.27589094,.0001542,42.9978,271.1015,277.0081,83.0595,0,U,63461,999,7217,.39451E-3,.10613E-3,0
STARLINK-33691,2025-070C,2026-07-13T06:03:31.519296,15.27591043,.000092,42.9982,270.3417,204.1672,155.9137,0,U,63462,999,7213,.37239E-3,.10003E-3,0
STARLINK-33696,2025-070D,2026-07-13T05:06:23.010048,15.27586034,.000188,43.0023,270.9141,281.5251,78.5389,0,U,63463,999,7217,.41163E-3,.11084E-3,0
STARLINK-33701,2025-070E,2026-07-13T05:48:55.943424,15.27590892,.0001031,42.9940,271.1250,178.5506,181.5349,0,U,63464,999,7217,.3463E-3,.9283E-4,0
STARLINK-33685,2025-070F,2026-07-13T06:57:11.209248,15.27587581,.0001807,42.9989,270.6275,268.9605,91.1040,0,U,63465,999,7218,.33019E-3,.8837E-4,0
STARLINK-33654,2025-070G,2026-07-13T06:42:22.898016,15.27590687,.0001804,42.9994,270.5474,263.5069,96.5577,0,U,63466,999,7218,.27073E-3,.7197E-4,0
STARLINK-33697,2025-070H,2026-07-13T05:11:57.763392,15.27581741,.0002329,43.0021,270.9506,266.7820,93.2766,0,U,63467,999,7217,.64684E-3,.17581E-3,0
STARLINK-33720,2025-070J,2026-07-13T06:47:55.971744,15.27593507,.0001403,42.9998,270.5771,265.5501,94.5190,0,U,63468,999,7218,.34257E-3,.918E-4,0
STARLINK-33587,2025-070K,2026-07-13T06:25:44.312736,15.27573513,.000102,43.0017,270.4563,249.1124,110.9618,0,U,63469,999,7218,.32029E-3,.856E-4,0
STARLINK-33637,2025-070L,2026-07-13T05:54:29.222784,15.27585100,.0001437,43.0009,271.1586,278.8304,81.2385,0,U,63470,999,7217,.1814E-3,.4734E-4,0
STARLINK-33744,2025-070M,2026-07-13T05:32:17.009088,15.27593186,.0001137,42.9967,271.0367,255.8207,104.2518,0,U,63471,999,7217,.55322E-3,.14998E-3,0
STARLINK-33766,2025-070N,2026-07-13T05:45:14.105376,15.27590868,.0001339,42.9995,271.1105,268.6518,91.4180,0,U,63472,999,7217,.34058E-3,.9125E-4,0
STARLINK-33765,2025-070P,2026-07-13T05:19:19.834176,15.27592144,.0002362,43.0018,270.9778,291.0594,69.0005,0,U,63473,999,7217,.33828E-3,.9062E-4,0
STARLINK-33735,2025-070Q,2026-07-13T06:27:33.162912,15.27617191,.0001146,42.9967,270.4585,240.2065,119.8673,0,U,63474,999,7218,.46671E-3,.12617E-3,0
STARLINK-33731,2025-070R,2026-07-13T05:50:47.194656,15.27587493,.0001343,42.9996,271.1380,276.6115,83.4584,0,U,63475,999,7217,.418E-3,.11261E-3,0
STARLINK-33718,2025-070S,2026-07-13T06:09:05.272992,15.27560855,.0002164,43.0035,270.3680,278.4744,81.5862,0,U,63476,999,7218,.23065E-3,.6086E-4,0
STARLINK-33630,2025-070T,2026-07-13T06:30:07.221024,15.27592508,.0001364,42.9967,266.9986,242.1689,117.9025,0,U,63477,999,7222,.485E-3,.13113E-3,0
STARLINK-33695,2025-070U,2026-07-13T06:11:37.226400,15.27589984,.0001765,43.0029,266.8997,275.3917,84.6733,0,U,63478,999,7222,.26841E-3,.7133E-4,0
STARLINK-33713,2025-070V,2026-07-13T06:17:10.217184,15.27586067,.000212,43.0018,266.9279,288.2359,71.8262,0,U,63479,999,7222,.18965E-3,.4961E-4,0
STARLINK-33721,2025-070W,2026-07-12T16:13:27.889536,15.27591079,.00020114,43.0020,270.2744,278.2080,81.8544,0,U,63480,999,7213,.38933301E-3,.1047E-3,0
STARLINK-33639,2025-070X,2026-07-13T06:48:37.799712,15.27586875,.0001368,42.9978,267.0883,247.8692,112.2014,0,U,63481,999,7222,.2693E-3,.7157E-4,0
STARLINK-33688,2025-070Z,2026-07-13T06:59:01.783104,15.27591193,.0001372,42.9945,270.6094,249.5345,110.5359,0,U,63483,999,7218,.34365E-3,.9209E-4,0
