STARLINK-33784          
1 63453U 25069W   26194.50307345  .00006271  00000+0  22357-3 0  9999
2 63453  53.1592 278.3450 0001356 125.6430 234.4697 15.30215949 72668
STARLINK-33768          
1 63454U 25069X   26194.48105821  .00015105  00000+0  45720-3 0  9997
2 63454  53.1591 272.5070 0001095  62.2730 297.8384 15.34406152 72737
STARLINK-33761          
1 63455U 25069Y   26194.46212278  .00006447  00000+0  20175-3 0  9997
2 63455  53.1584 272.3909 0001364  46.9001 313.2115 15.34403128 72744
STARLINK-33737          
1 63456U 25069Z   26194.46632041  .00016570  00000+0  50043-3 0  9997
2 63456  53.1589 272.4088 0001042 169.8631 190.2393 15.34402022 72637
STARLINK-33795          
1 63457U 25069AA  26194.48527043  .00013880  00000+0  42112-3 0  9994
2 63457  53.1590 272.5393 0001240  75.9200 284.1940 15.34403831 72639
STARLINK-33756          
1 63458U 25069AB  26194.47474691  .00013732  00000+0  41693-3 0  9993
2 63458  53.1593 272.4596 0001313  72.0157 288.0989 15.34391034 72746
STARLINK-33780          
1 63459U 25069AC  26194.48316191  .00015732  00000+0  47565-3 0  9991
2 63459  53.1587 272.5165 0000471  59.2636 300.8413 15.34406805 72632
STARLINK-33679          
1 63460U 25070A   26194.30000074  .00007532  00000+0  28289-3 0  9997
2 63460  43.0086 270.7484 0003696 301.7002  58.3489 15.27587317 72182
STARLINK-33706          
1 63461U 25070B   26194.23846522  .00010613  00000+0  39451-3 0  9993
2 63461  42.9978 271.1015 0001542 277.0081  83.0595 15.27589094 72172
STARLINK-33691          
1 63462U 25070C   26194.25244814  .00010003  00000+0  37239-3 0  9997
2 63462  42.9982 270.3417 0000920 204.1672 155.9137 15.27591043 72135
STARLINK-33696          
1 63463U 25070D   26194.21276632  .00011084  00000+0  41163-3 0  9998
2 63463  43.0023 270.9141 0001880 281.5251  78.5389 15.27586034 72179
STARLINK-33701          
1 63464U 25070E   26194.24231416  .00009283  00000+0  34630-3 0  9992
2 63464  42.9940 271.1250 0001031 178.5506 181.5349 15.27590892 72174
STARLINK-33685          
1 63465U 25070F   26194.28971307  .00008837  00000+0  33019-3 0  9991
2 63465  42.9989 270.6275 0001807 268.9605  91.1040 15.27587581 72180
STARLINK-33654          
1 63466U 25070G   26194.27943169  .00007197  00000+0  27073-3 0  9997
2 63466  42.9994 270.5474 0001804 263.5069  96.5577 15.27590687 72184
STARLINK-33697          
1 63467U 25070H   26194.21664078  .00017581  00000+0  64684-3 0  9998
2 63467  43.0021 270.9506 0002329 266.7820  93.2766 15.27581741 72175
STARLINK-33720          
1 63468U 25070J   26194.28328671  .00009180  00000+0  34257-3 0  9991
2 63468  42.9998 270.5771 0001403 265.5501  94.5190 15.27593507 72181
STARLINK-33587          
1 63469U 25070K   26194.26787399  .00008560  00000+0  32029-3 0  9992
2 63469  43.0017 270.4563 0001020 249.1124 110.9618 15.27573513 72181
STARLINK-33637          
1 63470U 25070L   26194.24617156  .00004734  00000+0  18140-3 0  9992
2 63470  43.0009 271.1586 0001437 278.8304  81.2385 15.27585100 72173
STARLINK-33744          
1 63471U 25070M   26194.23075242  .00014998  00000+0  55322-3 0  9992
2 63471  42.9967 271.0367 0001137 255.8207 104.2518 15.27593186 72172
STARLINK-33766          
1 63472U 25070N   26194.23974659  .00009125  00000+0  34058-3 0  9992
2 63472  42.9995 271.1105 0001339 268.6518  91.4180 15.27590868 72172
STARLINK-33765          
1 63473U 25070P   26194.22175734  .00009062  00000+0  33828-3 0  9993
2 63473  43.0018 270.9778 0002362 291.0594  69.0005 15.27592144 72171
STARLINK-33735          
1 63474U 25070Q   26194.26913383  .00012617  00000+0  46671-3 0  9998
2 63474  42.9967 270.4585 0001146 240.2065 119.8673 15.27617191 72188
STARLINK-33731          
1 63475U 25070R   26194.24360179  .00011261  00000+0  41800-3 0  9999
2 63475  42.9996 271.1380 0001343 276.6115  83.4584 15.27587493 72177
STARLINK-33718          
1 63476U 25070S   26194.25631103  .00006086  00000+0  23065-3 0  9991
2 63476  43.0035 270.3680 0002164 278.4744  81.5862 15.27560855 72180
STARLINK-33630          
1 63477U 25070T   26194.27091691  .00013113  00000+0  48500-3 0  9996
2 63477  42.9967 266.9986 0001364 242.1689 117.9025 15.27592508 72220
STARLINK-33695          
1 63478U 25070U   26194.25806975  .00007133  00000+0  26841-3 0  9993
2 63478  43.0029 266.8997 0001765 275.3917  84.6733 15.27589984 72220
STARLINK-33713          
1 63479U 25070V   26194.26192381  .00004961  00000+0  18965-3 0  9998
2 63479  43.0018 266.9279 0002120 288.2359  71.8262 15.27586067 72226
STARLINK-33721          
1 63480U 25070W   26193.67601724  .00010470  00000+0  38933-3 0  9999
2 63480  43.0020 270.2744 0002011 278.2080  81.8544 15.27591079 72138
STARLINK-33639          
1 63481U 25070X   26194.28377083  .00007157  00000+0  26930-3 0  9998
2 63481  42.9978 267.0883 0001368 247.8692 112.2014 15.27586875 72221
STARLINK-33688          
1 63483U 25070Z   26194.29099286  .00009209  00000+0  34365-3 0  9998
2 63483  42.9945 270.6094 0001372 249.5345 110.5359 15.27591193 72187
